{"result": {"type": "FeatureCollection", "crs": {"type": "name", "properties": {"name": "http://www.opengis.net/def/crs/EPSG/0/3812"}}, "features": [{"type": "Feature", "id": "my_contour_id", "geometry": {"type": "Polygon", "coordinates": [[[172450.0, 172250.0], [172750.0, 172250.0], [172750.0, 172550.0], [172450.0, 172550.0], [172450.0, 172250.0]]]}, "properties": {"brdr_metadata": {}, "brdr_id": "my_contour_id", "brdr_remark": ["resulting geometry equal to original geometry"], "brdr_nr_calculations": 1, "brdr_relevant_distance": 5, "brdr_sym_diff_area_index": 0, "brdr_sym_diff_area_index_perc": 0, "brdr_diff_area_index": 0, "brdr_diff_area_index_perc": 0, "brdr_diff_length_index": 0, "brdr_diff_length_index_perc": 0, "brdr_area": 90000.0, "brdr_perimeter": 1200.0, "brdr_shape_index": 0.7853981633974483}}]}, "result_diff": {"type": "FeatureCollection", "crs": {"type": "name", "properties": {"name": "http://www.opengis.net/def/crs/EPSG/0/3812"}}, "features": [{"type": "Feature", "id": "my_contour_id", "geometry": null, "properties": {"brdr_metadata": {}, "brdr_id": "my_contour_id", "brdr_remark": ["resulting geometry equal to original geometry"], "brdr_nr_calculations": 1, "brdr_relevant_distance": 5, "brdr_sym_diff_area_index": 0, "brdr_sym_diff_area_index_perc": 0, "brdr_diff_area_index": 0, "brdr_diff_area_index_perc": 0, "brdr_diff_length_index": 0, "brdr_diff_length_index_perc": 0, "brdr_area": 0.0, "brdr_perimeter": 0.0, "brdr_shape_index": -1}}]}, "result_diff_plus": {"type": "FeatureCollection", "crs": {"type": "name", "properties": {"name": "http://www.opengis.net/def/crs/EPSG/0/3812"}}, "features": [{"type": "Feature", "id": "my_contour_id", "geometry": null, "properties": {"brdr_metadata": {}, "brdr_id": "my_contour_id", "brdr_remark": ["resulting geometry equal to original geometry"], "brdr_nr_calculations": 1, "brdr_relevant_distance": 5, "brdr_sym_diff_area_index": 0, "brdr_sym_diff_area_index_perc": 0, "brdr_diff_area_index": 0, "brdr_diff_area_index_perc": 0, "brdr_diff_length_index": 0, "brdr_diff_length_index_perc": 0, "brdr_area": 0.0, "brdr_perimeter": 0.0, "brdr_shape_index": -1}}]}, "result_diff_min": {"type": "FeatureCollection", "crs": {"type": "name", "properties": {"name": "http://www.opengis.net/def/crs/EPSG/0/3812"}}, "features": [{"type": "Feature", "id": "my_contour_id", "geometry": null, "properties": {"brdr_metadata": {}, "brdr_id": "my_contour_id", "brdr_remark": ["resulting geometry equal to original geometry"], "brdr_nr_calculations": 1, "brdr_relevant_distance": 5, "brdr_sym_diff_area_index": 0, "brdr_sym_diff_area_index_perc": 0, "brdr_diff_area_index": 0, "brdr_diff_area_index_perc": 0, "brdr_diff_length_index": 0, "brdr_diff_length_index_perc": 0, "brdr_area": 0.0, "brdr_perimeter": 0.0, "brdr_shape_index": -1}}]}, "result_relevant_intersection": {"type": "FeatureCollection", "crs": {"type": "name", "properties": {"name": "http://www.opengis.net/def/crs/EPSG/0/3812"}}, "features": [{"type": "Feature", "id": "my_contour_id", "geometry": null, "properties": {"brdr_metadata": {}, "brdr_id": "my_contour_id", "brdr_remark": ["resulting geometry equal to original geometry"], "brdr_nr_calculations": 1, "brdr_relevant_distance": 5, "brdr_sym_diff_area_index": 0, "brdr_sym_diff_area_index_perc": 0, "brdr_diff_area_index": 0, "brdr_diff_area_index_perc": 0, "brdr_diff_length_index": 0, "brdr_diff_length_index_perc": 0, "brdr_area": 0.0, "brdr_perimeter": 0.0, "brdr_shape_index": -1}}]}, "result_relevant_diff": {"type": "FeatureCollection", "crs": {"type": "name", "properties": {"name": "http://www.opengis.net/def/crs/EPSG/0/3812"}}, "features": [{"type": "Feature", "id": "my_contour_id", "geometry": null, "properties": {"brdr_metadata": {}, "brdr_id": "my_contour_id", "brdr_remark": ["resulting geometry equal to original geometry"], "brdr_nr_calculations": 1, "brdr_relevant_distance": 5, "brdr_sym_diff_area_index": 0, "brdr_sym_diff_area_index_perc": 0, "brdr_diff_area_index": 0, "brdr_diff_area_index_perc": 0, "brdr_diff_length_index": 0, "brdr_diff_length_index_perc": 0, "brdr_area": 0.0, "brdr_perimeter": 0.0, "brdr_shape_index": -1}}]}}